{"type": "FeatureCollection", "features": [ {"type": "Feature", "properties": {"norad_id": 43623, "name": "BEIDOU-3 M14 (C33)", "group": "beidou", "lat": 17.52810608526197, "lon": 81.03071857299047, "alt_km": 21520.051777986788, "timestamp": "2025-12-08T19:31:49.075578+00:00", "meta": {"OBJECT_NAME": "BEIDOU-3 M14 (C33)", "OBJECT_ID": "2018-072B", "EPOCH": "2025-12-08T05:53:08.473344", "MEAN_MOTION": 1.8623075, "ECCENTRICITY": 0.00032562, "INCLINATION": 56.4569, "RA_OF_ASC_NODE": 68.9631, "ARG_OF_PERICENTER": 332.5752, "MEAN_ANOMALY": 27.4289, "EPHEMERIS_TYPE": 0, "CLASSIFICATION_TYPE": "U", "NORAD_CAT_ID": 43623, "ELEMENT_SET_NO": 999, "REV_AT_EPOCH": 4909, "BSTAR": 0, "MEAN_MOTION_DOT": -4.5e-07, "MEAN_MOTION_DDOT": 0}, "tle": {"line1": "1 43623U 18072B   25342.24523696 -.00000045  00000+0  00000+0 0  9997", "line2": "2 43623  56.4569  68.9631 0003256 332.5752  27.4289  1.86230750 49097"}}, "geometry": {"type": "Point", "coordinates": [81.03071857299047, 17.52810608526197]}}, {"type": "Feature", "properties": {"norad_id": 43647, "name": "BEIDOU-3 M16 (C35)", "group": "beidou", "lat": -53.93087343536493, "lon": -134.35749716067784, "alt_km": 21538.400028760272, "timestamp": "2025-12-08T19:31:49.075588+00:00", "meta": {"OBJECT_NAME": "BEIDOU-3 M16 (C35)", "OBJECT_ID": "2018-078A", "EPOCH": "2025-12-07T20:47:16.965312", "MEAN_MOTION": 1.86232177, "ECCENTRICITY": 0.00071256, "INCLINATION": 54.2666, "RA_OF_ASC_NODE": 306.6916, "ARG_OF_PERICENTER": 18.9999, "MEAN_ANOMALY": 341.0132, "EPHEMERIS_TYPE": 0, "CLASSIFICATION_TYPE": "U", "NORAD_CAT_ID": 43647, "ELEMENT_SET_NO": 999, "REV_AT_EPOCH": 4859, "BSTAR": 0, "MEAN_MOTION_DOT": -7.1e-07, "MEAN_MOTION_DDOT": 0}, "tle": {"line1": "1 43647U 18078A   25341.86616858 -.00000071  00000+0  00000+0 0  9998", "line2": "2 43647  54.2666 306.6916 0007125  18.9999 341.0132  1.86232177 48593"}}, "geometry": {"type": "Point", "coordinates": [-134.35749716067784, -53.93087343536493]}}, {"type": "Feature", "properties": {"norad_id": 43648, "name": "BEIDOU-3 M15 (C34)", "group": "beidou", "lat": -7.094701778986675, "lon": 131.77707845161643, "alt_km": 21539.26490514178, "timestamp": "2025-12-08T19:31:49.075598+00:00", "meta": {"OBJECT_NAME": "BEIDOU-3 M15 (C34)", "OBJECT_ID": "2018-078B", "EPOCH": "2025-12-05T07:27:18.667008", "MEAN_MOTION": 1.86231965, "ECCENTRICITY": 0.00036856, "INCLINATION": 54.2646, "RA_OF_ASC_NODE": 306.7819, "ARG_OF_PERICENTER": 17.7509, "MEAN_ANOMALY": 342.2442, "EPHEMERIS_TYPE": 0, "CLASSIFICATION_TYPE": "U", "NORAD_CAT_ID": 43648, "ELEMENT_SET_NO": 999, "REV_AT_EPOCH": 4856, "BSTAR": 0, "MEAN_MOTION_DOT": -6.9e-07, "MEAN_MOTION_DDOT": 0}, "tle": {"line1": "1 43648U 18078B   25339.31063272 -.00000069  00000+0  00000+0 0  9999", "line2": "2 43648  54.2646 306.7819 0003685  17.7509 342.2442  1.86231965 48564"}}, "geometry": {"type": "Point", "coordinates": [131.77707845161643, -7.094701778986675]}}, {"type": "Feature", "properties": {"norad_id": 43683, "name": "BEIDOU-3 G1 (C59)", "group": "beidou", "lat": 1.929561541322451, "lon": 150.80440664450788, "alt_km": 35778.48567655256, "timestamp": "2025-12-08T19:31:49.075608+00:00", "meta": {"OBJECT_NAME": "BEIDOU-3 G1 (C59)", "OBJECT_ID": "2018-085A", "EPOCH": "2025-12-08T07:25:20.267040", "MEAN_MOTION": 1.00272172, "ECCENTRICITY": 0.00018048, "INCLINATION": 2.5963, "RA_OF_ASC_NODE": 103.0717, "ARG_OF_PERICENTER": 63.3495, "MEAN_ANOMALY": 162.3008, "EPHEMERIS_TYPE": 0, "CLASSIFICATION_TYPE": "U", "NORAD_CAT_ID": 43683, "ELEMENT_SET_NO": 999, "REV_AT_EPOCH": 2614, "BSTAR": 0, "MEAN_MOTION_DOT": -2.75e-06, "MEAN_MOTION_DDOT": 0}, "tle": {"line1": "1 43683U 18085A   25342.30926235 -.00000275  00000+0  00000+0 0  9995", "line2": "2 43683   2.5963 103.0717 0001804  63.3495 162.3008  1.00272172 26148"}}, "geometry": {"type": "Point", "coordinates": [150.80440664450788, 1.929561541322451]}}, {"type": "Feature", "properties": {"norad_id": 43706, "name": "BEIDOU-3 M17 (C36)", "group": "beidou", "lat": 53.46359687652971, "lon": -94.00825794161821, "alt_km": 21534.551282506134, "timestamp": "2025-12-08T19:31:49.075618+00:00", "meta": {"OBJECT_NAME": "BEIDOU-3 M17 (C36)", "OBJECT_ID": "2018-093A", "EPOCH": "2025-12-07T14:48:21.855168", "MEAN_MOTION": 1.86228284, "ECCENTRICITY": 0.00062805, "INCLINATION": 54.1726, "RA_OF_ASC_NODE": 188.7957, "ARG_OF_PERICENTER": 306.8929, "MEAN_ANOMALY": 53.1188, "EPHEMERIS_TYPE": 0, "CLASSIFICATION_TYPE": "U", "NORAD_CAT_ID": 43706, "ELEMENT_SET_NO": 999, "REV_AT_EPOCH": 4797, "BSTAR": 0, "MEAN_MOTION_DOT": 5.7e-07, "MEAN_MOTION_DDOT": 0}, "tle": {"line1": "1 43706U 18093A   25341.61691962  .00000057  00000+0  00000+0 0  9996", "line2": "2 43706  54.1726 188.7957 0006280 306.8929  53.1188  1.86228284 47979"}}, "geometry": {"type": "Point", "coordinates": [-94.00825794161821, 53.46359687652971]}}, {"type": "Feature", "properties": {"norad_id": 43707, "name": "BEIDOU-3 M18 (C37)", "group": "beidou", "lat": 3.786169632961104, "lon": 6.013031933228987, "alt_km": 21545.978817005656, "timestamp": "2025-12-08T19:31:49.075628+00:00", "meta": {"OBJECT_NAME": "BEIDOU-3 M18 (C37)", "OBJECT_ID": "2018-093B", "EPOCH": "2025-12-08T00:22:06.139776", "MEAN_MOTION": 1.86226539, "ECCENTRICITY": 0.00063651, "INCLINATION": 54.1733, "RA_OF_ASC_NODE": 188.774, "ARG_OF_PERICENTER": 352.0648, "MEAN_ANOMALY": 7.9918, "EPHEMERIS_TYPE": 0, "CLASSIFICATION_TYPE": "U", "NORAD_CAT_ID": 43707, "ELEMENT_SET_NO": 999, "REV_AT_EPOCH": 4797, "BSTAR": 0, "MEAN_MOTION_DOT": 5.3e-07, "MEAN_MOTION_DDOT": 0}, "tle": {"line1": "1 43707U 18093B   25342.01534884  .00000053  00000+0  00000+0 0  9997", "line2": "2 43707  54.1733 188.7740 0006365 352.0648   7.9918  1.86226539 47972"}}, "geometry": {"type": "Point", "coordinates": [6.013031933228987, 3.786169632961104]}}, {"type": "Feature", "properties": {"norad_id": 44204, "name": "BEIDOU-3 IGSO-1 (C38)", "group": "beidou", "lat": 57.99939909491474, "lon": 119.03734155572883, "alt_km": 35870.74802840104, "timestamp": "2025-12-08T19:31:49.075638+00:00", "meta": {"OBJECT_NAME": "BEIDOU-3 IGSO-1 (C38)", "OBJECT_ID": "2019-023A", "EPOCH": "2025-11-19T14:15:02.708640", "MEAN_MOTION": 1.00252177, "ECCENTRICITY": 0.0026966, "INCLINATION": 58.4003, "RA_OF_ASC_NODE": 39.8168, "ARG_OF_PERICENTER": 221.2202, "MEAN_ANOMALY": 126.9723, "EPHEMERIS_TYPE": 0, "CLASSIFICATION_TYPE": "U", "NORAD_CAT_ID": 44204, "ELEMENT_SET_NO": 999, "REV_AT_EPOCH": 510, "BSTAR": 0, "MEAN_MOTION_DOT": -2.26e-06, "MEAN_MOTION_DDOT": 0}, "tle": {"line1": "1 44204U 19023A   25323.59378135 -.00000226  00000+0  00000+0 0  9994", "line2": "2 44204  58.4003  39.8168 0026966 221.2202 126.9723  1.00252177  5102"}}, "geometry": {"type": "Point", "coordinates": [119.03734155572883, 57.99939909491474]}}, {"type": "Feature", "properties": {"norad_id": 44231, "name": "BEIDOU-2 G8 (C01)", "group": "beidou", "lat": 1.633210666879791, "lon": 155.2947817785175, "alt_km": 35822.70918955282, "timestamp": "2025-12-08T19:31:49.075651+00:00", "meta": {"OBJECT_NAME": "BEIDOU-2 G8 (C01)", "OBJECT_ID": "2019-027A", "EPOCH": "2025-12-08T07:26:35.147328", "MEAN_MOTION": 1.00269007, "ECCENTRICITY": 0.00086087, "INCLINATION": 1.6505, "RA_OF_ASC_NODE": 74.7218, "ARG_OF_PERICENTER": 255.48, "MEAN_ANOMALY": 3.3084, "EPHEMERIS_TYPE": 0, "CLASSIFICATION_TYPE": "U", "NORAD_CAT_ID": 44231, "ELEMENT_SET_NO": 999, "REV_AT_EPOCH": 2416, "BSTAR": 0, "MEAN_MOTION_DOT": -2.45e-06, "MEAN_MOTION_DDOT": 0}, "tle": {"line1": "1 44231U 19027A   25342.31012902 -.00000245  00000+0  00000+0 0  9997", "line2": "2 44231   1.6505  74.7218 0008608 255.4800   3.3084  1.00269007 24164"}}, "geometry": {"type": "Point", "coordinates": [155.2947817785175, 1.633210666879791]}}, {"type": "Feature", "properties": {"norad_id": 44337, "name": "BEIDOU-3 IGSO-2 (C39)", "group": "beidou", "lat": -24.13533574761554, "lon": 142.35969921408295, "alt_km": 35885.77376779809, "timestamp": "2025-12-08T19:31:49.075661+00:00", "meta": {"OBJECT_NAME": "BEIDOU-3 IGSO-2 (C39)", "OBJECT_ID": "2019-035A", "EPOCH": "2025-12-08T04:07:53.847264", "MEAN_MOTION": 1.00272471, "ECCENTRICITY": 0.00374795, "INCLINATION": 55.2246, "RA_OF_ASC_NODE": 160.5411, "ARG_OF_PERICENTER": 202.4386, "MEAN_ANOMALY": 255.7158, "EPHEMERIS_TYPE": 0, "CLASSIFICATION_TYPE": "U", "NORAD_CAT_ID": 44337, "ELEMENT_SET_NO": 999, "REV_AT_EPOCH": 2375, "BSTAR": 0, "MEAN_MOTION_DOT": -7.9e-07, "MEAN_MOTION_DDOT": 0}, "tle": {"line1": "1 44337U 19035A   25342.17215101 -.00000079  00000+0  00000+0 0  9998", "line2": "2 44337  55.2246 160.5411 0037479 202.4386 255.7158  1.00272471 23754"}}, "geometry": {"type": "Point", "coordinates": [142.35969921408295, -24.13533574761554]}}, {"type": "Feature", "properties": {"norad_id": 44542, "name": "BEIDOU-3 M24 (C46)", "group": "beidou", "lat": 39.954182410004215, "lon": -27.736203913813135, "alt_km": 21529.43840567721, "timestamp": "2025-12-08T19:31:49.075671+00:00", "meta": {"OBJECT_NAME": "BEIDOU-3 M24 (C46)", "OBJECT_ID": "2019-061A", "EPOCH": "2025-12-07T13:11:18.062304", "MEAN_MOTION": 1.86229273, "ECCENTRICITY": 0.00095737, "INCLINATION": 54.4002, "RA_OF_ASC_NODE": 189.1913, "ARG_OF_PERICENTER": 24.494, "MEAN_ANOMALY": 335.622, "EPHEMERIS_TYPE": 0, "CLASSIFICATION_TYPE": "U", "NORAD_CAT_ID": 44542, "ELEMENT_SET_NO": 999, "REV_AT_EPOCH": 4222, "BSTAR": 0, "MEAN_MOTION_DOT": 5.8e-07, "MEAN_MOTION_DDOT": 0}, "tle": {"line1": "1 44542U 19061A   25341.54951461  .00000058  00000+0  00000+0 0  9997", "line2": "2 44542  54.4002 189.1913 0009573  24.4940 335.6220  1.86229273 42226"}}, "geometry": {"type": "Point", "coordinates": [-27.736203913813135, 39.954182410004215]}}]}